{
  "norad_id": 55459,
  "name": "STARLINK-5669",
  "history": [
    {
      "epoch": "2026-04-12T13:20:40.415712Z",
      "apogee_km": 486.8894098942965,
      "perigee_km": 484.25388304822445,
      "latitude_deg": -3.607243300291481e-06,
      "longitude_deg": 96.34753168362883,
      "height_km": 485.1846867529101,
      "semi_major_axis_km": 6863.70864647126,
      "eccentricity": 0.00019199,
      "inclination_deg": 43.005,
      "raan_deg": 137.2754,
      "arg_perigee_deg": 277.181,
      "mean_anomaly_deg": 82.8823,
      "mean_motion_rev_day": 15.26737953
    },
    {
      "epoch": "2026-04-14T18:43:45.278688Z",
      "apogee_km": 486.3738650601681,
      "perigee_km": 484.79520910663905,
      "latitude_deg": -2.2339612725182265e-05,
      "longitude_deg": 0.835319776300233,
      "height_km": 485.44471117072266,
      "semi_major_axis_km": 6863.721537083403,
      "eccentricity": 0.000115,
      "inclination_deg": 43.0048,
      "raan_deg": 124.7259,
      "arg_perigee_deg": 263.9582,
      "mean_anomaly_deg": 96.1138,
      "mean_motion_rev_day": 15.26733652
    },
    {
      "epoch": "2026-04-15T18:16:51.589344Z",
      "apogee_km": 487.4444817211197,
      "perigee_km": 483.662588236346,
      "latitude_deg": 2.554526681950756e-05,
      "longitude_deg": 1.0536421604885855,
      "height_km": 485.6258517879943,
      "semi_major_axis_km": 6863.690534978732,
      "eccentricity": 0.0002755,
      "inclination_deg": 43.0104,
      "raan_deg": 119.1877,
      "arg_perigee_deg": 261.0726,
      "mean_anomaly_deg": 98.9814,
      "mean_motion_rev_day": 15.26743996
    },
    {
      "epoch": "2026-04-16T17:49:59.452608Z",
      "apogee_km": 486.6923200798683,
      "perigee_km": 484.4135750172818,
      "latitude_deg": 4.141546850457676e-06,
      "longitude_deg": 1.2755037887220935,
      "height_km": 485.07522331291796,
      "semi_major_axis_km": 6863.689947548574,
      "eccentricity": 0.000166,
      "inclination_deg": 43.0055,
      "raan_deg": 113.6596,
      "arg_perigee_deg": 282.95,
      "mean_anomaly_deg": 77.1166,
      "mean_motion_rev_day": 15.26744192
    },
    {
      "epoch": "2026-04-17T17:23:06.434592Z",
      "apogee_km": 486.6724209892036,
      "perigee_km": 484.4212699615646,
      "latitude_deg": -3.0097285447588465e-05,
      "longitude_deg": 1.4944332229283914,
      "height_km": 485.04144483035105,
      "semi_major_axis_km": 6863.683845475384,
      "eccentricity": 0.00016399,
      "inclination_deg": 43.0056,
      "raan_deg": 108.1249,
      "arg_perigee_deg": 284.5622,
      "mean_anomaly_deg": 75.5047,
      "mean_motion_rev_day": 15.26746228
    },
    {
      "epoch": "2026-04-18T16:56:14.614944Z",
      "apogee_km": 486.5842245315089,
      "perigee_km": 484.5827636354343,
      "latitude_deg": -1.2023259795882125e-05,
      "longitude_deg": 1.7078105530034369,
      "height_km": 485.1453606300458,
      "semi_major_axis_km": 6863.720494083471,
      "eccentricity": 0.0001458,
      "inclination_deg": 43.0055,
      "raan_deg": 102.5896,
      "arg_perigee_deg": 282.4405,
      "mean_anomaly_deg": 77.6283,
      "mean_motion_rev_day": 15.26734
    },
    {
      "epoch": "2026-04-19T16:29:21.595200Z",
      "apogee_km": 486.81681687559285,
      "perigee_km": 484.3815632753531,
      "latitude_deg": -6.898068608834846e-06,
      "longitude_deg": 1.9269869877070815,
      "height_km": 485.106739755344,
      "semi_major_axis_km": 6863.736190075472,
      "eccentricity": 0.0001774,
      "inclination_deg": 43.0057,
      "raan_deg": 97.0551,
      "arg_perigee_deg": 282.8199,
      "mean_anomaly_deg": 77.2454,
      "mean_motion_rev_day": 15.26728763
    },
    {
      "epoch": "2026-04-20T09:45:38.818656Z",
      "apogee_km": 486.53163171481447,
      "perigee_km": 484.5982641501205,
      "latitude_deg": 3.0093391536029416e-05,
      "longitude_deg": 98.08754744991053,
      "height_km": 485.0131434844206,
      "semi_major_axis_km": 6863.701947932467,
      "eccentricity": 0.00014084,
      "inclination_deg": 43.0055,
      "raan_deg": 92.9967,
      "arg_perigee_deg": 289.909,
      "mean_anomaly_deg": 70.161,
      "mean_motion_rev_day": 15.26740188
    },
    {
      "epoch": "2026-04-21T15:35:35.316384Z",
      "apogee_km": 486.5327657935959,
      "perigee_km": 484.52994736714663,
      "latitude_deg": -1.5255622177403182e-05,
      "longitude_deg": 2.364717374135549,
      "height_km": 485.0895995710376,
      "semi_major_axis_km": 6863.668356580371,
      "eccentricity": 0.0001459,
      "inclination_deg": 43.0067,
      "raan_deg": 85.9845,
      "arg_perigee_deg": 282.6521,
      "mean_anomaly_deg": 77.4167,
      "mean_motion_rev_day": 15.26751396
    },
    {
      "epoch": "2026-04-22T19:51:20.441088Z",
      "apogee_km": 486.52065014370146,
      "perigee_km": 484.59057978037436,
      "latitude_deg": -8.124354109119488e-06,
      "longitude_deg": -69.37569860401267,
      "height_km": 485.1515019348643,
      "semi_major_axis_km": 6863.692614962038,
      "eccentricity": 0.0001406,
      "inclination_deg": 43.0066,
      "raan_deg": 79.3428,
      "arg_perigee_deg": 280.8492,
      "mean_anomaly_deg": 79.2201,
      "mean_motion_rev_day": 15.26743302
    },
    {
      "epoch": "2026-04-23T08:25:00.149088Z",
      "apogee_km": 486.4415790573603,
      "perigee_km": 484.658255922458,
      "latitude_deg": 5.035730942774585e-05,
      "longitude_deg": 98.74194953606296,
      "height_km": 485.1272976765282,
      "semi_major_axis_km": 6863.686917489908,
      "eccentricity": 0.00012991,
      "inclination_deg": 43.0059,
      "raan_deg": 76.3917,
      "arg_perigee_deg": 282.9599,
      "mean_anomaly_deg": 77.1108,
      "mean_motion_rev_day": 15.26745203
    },
    {
      "epoch": "2026-04-24T04:49:42.320064Z",
      "apogee_km": 486.4539782651418,
      "perigee_km": 484.6659852014009,
      "latitude_deg": 3.551239793105711e-05,
      "longitude_deg": 146.93124065899127,
      "height_km": 485.0990712133761,
      "semi_major_axis_km": 6863.696981733271,
      "eccentricity": 0.00013025,
      "inclination_deg": 43.0063,
      "raan_deg": 71.595,
      "arg_perigee_deg": 285.4598,
      "mean_anomaly_deg": 74.611,
      "mean_motion_rev_day": 15.26741845
    },
    {
      "epoch": "2026-04-25T20:04:53.942016Z",
      "apogee_km": 486.39848741525293,
      "perigee_km": 484.68531316173994,
      "latitude_deg": 1.6801104207000478e-05,
      "longitude_deg": -92.70377766412183,
      "height_km": 485.199125598781,
      "semi_major_axis_km": 6863.678900288496,
      "eccentricity": 0.0001248,
      "inclination_deg": 43.0057,
      "raan_deg": 62.3705,
      "arg_perigee_deg": 278.0579,
      "mean_anomaly_deg": 82.0131,
      "mean_motion_rev_day": 15.26747878
    },
    {
      "epoch": "2026-04-26T13:21:12.231648Z",
      "apogee_km": 486.46841040014806,
      "perigee_km": 484.7661993325419,
      "latitude_deg": 1.9971464578922742e-05,
      "longitude_deg": 3.4507937656824796,
      "height_km": 485.4591047642997,
      "semi_major_axis_km": 6863.754304866345,
      "eccentricity": 0.000124,
      "inclination_deg": 43.0066,
      "raan_deg": 58.3106,
      "arg_perigee_deg": 265.6587,
      "mean_anomaly_deg": 94.4123,
      "mean_motion_rev_day": 15.26722719
    },
    {
      "epoch": "2026-04-27T20:45:21.177216Z",
      "apogee_km": 486.8060560393351,
      "perigee_km": 484.33786629689894,
      "latitude_deg": 3.6946219886591663e-05,
      "longitude_deg": -116.25611460924023,
      "height_km": 485.3136745525972,
      "semi_major_axis_km": 6863.708961168117,
      "eccentricity": 0.0001798,
      "inclination_deg": 43.0083,
      "raan_deg": 50.9306,
      "arg_perigee_deg": 271.6863,
      "mean_anomaly_deg": 88.3783,
      "mean_motion_rev_day": 15.26737848
    },
    {
      "epoch": "2026-04-28T20:18:28.687104Z",
      "apogee_km": 486.3180996928859,
      "perigee_km": 484.8067130835998,
      "latitude_deg": -1.8314004444262478e-05,
      "longitude_deg": -116.03801382073401,
      "height_km": 485.361509672355,
      "semi_major_axis_km": 6863.699406388243,
      "eccentricity": 0.0001101,
      "inclination_deg": 43.0057,
      "raan_deg": 45.3973,
      "arg_perigee_deg": 268.3364,
      "mean_anomaly_deg": 91.7361,
      "mean_motion_rev_day": 15.26741036
    },
    {
      "epoch": "2026-04-29T19:51:35.856576Z",
      "apogee_km": 486.43950199941446,
      "perigee_km": 484.7290626558588,
      "latitude_deg": -4.130724201141612e-05,
      "longitude_deg": -115.82125673784269,
      "height_km": 485.4616147711472,
      "semi_major_axis_km": 6863.721282327637,
      "eccentricity": 0.0001246,
      "inclination_deg": 43.0065,
      "raan_deg": 39.8612,
      "arg_perigee_deg": 263.2872,
      "mean_anomaly_deg": 96.7837,
      "mean_motion_rev_day": 15.26733737
    },
    {
      "epoch": "2026-04-30T11:33:40.550112Z",
      "apogee_km": 486.3978233227108,
      "perigee_km": 484.71361040384636,
      "latitude_deg": 6.395390811492332e-05,
      "longitude_deg": 4.324869277820385,
      "height_km": 485.44510383442827,
      "semi_major_axis_km": 6863.692716863278,
      "eccentricity": 0.00012269,
      "inclination_deg": 43.0065,
      "raan_deg": 36.1716,
      "arg_perigee_deg": 262.3532,
      "mean_anomaly_deg": 97.7181,
      "mean_motion_rev_day": 15.26743268
    },
    {
      "epoch": "2026-05-02T10:39:55.015200Z",
      "apogee_km": 486.37445644104537,
      "perigee_km": 484.73540680777387,
      "latitude_deg": 7.399899794396191e-06,
      "longitude_deg": 4.761241918710527,
      "height_km": 485.3883623001291,
      "semi_major_axis_km": 6863.691931624409,
      "eccentricity": 0.0001194,
      "inclination_deg": 43.0061,
      "raan_deg": 25.1028,
      "arg_perigee_deg": 266.0712,
      "mean_anomaly_deg": 94.0003,
      "mean_motion_rev_day": 15.2674353
    }
  ]
}